{"fetched_at":"2026-07-19T17:31:14.814Z","source":"https://celestrak.org/NORAD/elements/gp.php?GROUP=spire&FORMAT=JSON","constellation":"spire","records":[{"OBJECT_NAME":"LEMUR-2-LEIA-PHILIP","OBJECT_ID":"2025-052AN","EPOCH":"2026-07-19T05:06:36.681120","CLASSIFICATION_TYPE":"U","MEAN_MOTION":14.97392781,"ECCENTRICITY":0.00050444,"INCLINATION":97.6794,"RA_OF_ASC_NODE":91.6202,"ARG_OF_PERICENTER":111.115,"MEAN_ANOMALY":249.0611,"EPHEMERIS_TYPE":0,"NORAD_CAT_ID":63246,"ELEMENT_SET_NO":999,"REV_AT_EPOCH":7346,"BSTAR":0.000009380183,"MEAN_MOTION_DOT":5.2e-7,"MEAN_MOTION_DDOT":0},{"OBJECT_NAME":"LEMUR-2-LIA-MARTIN","OBJECT_ID":"2025-052AQ","EPOCH":"2026-07-19T04:56:16.651392","CLASSIFICATION_TYPE":"U","MEAN_MOTION":14.9804342,"ECCENTRICITY":0.00050513,"INCLINATION":97.6854,"RA_OF_ASC_NODE":92.1388,"ARG_OF_PERICENTER":80.1011,"MEAN_ANOMALY":280.0781,"EPHEMERIS_TYPE":0,"NORAD_CAT_ID":63248,"ELEMENT_SET_NO":999,"REV_AT_EPOCH":7347,"BSTAR":0.00010911392,"MEAN_MOTION_DOT":0.00001232,"MEAN_MOTION_DDOT":0},{"OBJECT_NAME":"LEMUR-2-DELOITTE-1","OBJECT_ID":"2025-052BB","EPOCH":"2026-07-19T06:05:16.970496","CLASSIFICATION_TYPE":"U","MEAN_MOTION":14.97801761,"ECCENTRICITY":0.00025409,"INCLINATION":97.6885,"RA_OF_ASC_NODE":92.5158,"ARG_OF_PERICENTER":59.0994,"MEAN_ANOMALY":301.0478,"EPHEMERIS_TYPE":0,"NORAD_CAT_ID":63259,"ELEMENT_SET_NO":999,"REV_AT_EPOCH":7349,"BSTAR":0.00020660167,"MEAN_MOTION_DOT":0.00002369,"MEAN_MOTION_DDOT":0},{"OBJECT_NAME":"LEMUR-2-EMERSONROSE","OBJECT_ID":"2025-052BD","EPOCH":"2026-07-19T04:43:43.131072","CLASSIFICATION_TYPE":"U","MEAN_MOTION":14.99310093,"ECCENTRICITY":0.00024725,"INCLINATION":97.6884,"RA_OF_ASC_NODE":93.0826,"ARG_OF_PERICENTER":51.143,"MEAN_ANOMALY":309.0014,"EPHEMERIS_TYPE":0,"NORAD_CAT_ID":63261,"ELEMENT_SET_NO":999,"REV_AT_EPOCH":7353,"BSTAR":0.00018682225,"MEAN_MOTION_DOT":0.00002223,"MEAN_MOTION_DDOT":0},{"OBJECT_NAME":"LEMUR-2-MARACHE-FRAN","OBJECT_ID":"2025-052BE","EPOCH":"2026-07-19T05:12:30.189312","CLASSIFICATION_TYPE":"U","MEAN_MOTION":15.00329187,"ECCENTRICITY":0.00056834,"INCLINATION":97.6818,"RA_OF_ASC_NODE":93.473,"ARG_OF_PERICENTER":236.5644,"MEAN_ANOMALY":123.5037,"EPHEMERIS_TYPE":0,"NORAD_CAT_ID":63262,"ELEMENT_SET_NO":999,"REV_AT_EPOCH":7356,"BSTAR":0.0001293173,"MEAN_MOTION_DOT":0.00001563,"MEAN_MOTION_DDOT":0},{"OBJECT_NAME":"LEMUR-2-THEFALCONER","OBJECT_ID":"2025-052BG","EPOCH":"2026-07-19T05:13:47.846496","CLASSIFICATION_TYPE":"U","MEAN_MOTION":14.9757226,"ECCENTRICITY":0.00005917,"INCLINATION":97.6817,"RA_OF_ASC_NODE":92.0667,"ARG_OF_PERICENTER":231.4008,"MEAN_ANOMALY":128.7162,"EPHEMERIS_TYPE":0,"NORAD_CAT_ID":63264,"ELEMENT_SET_NO":999,"REV_AT_EPOCH":7348,"BSTAR":0.00010029059,"MEAN_MOTION_DOT":0.00001113,"MEAN_MOTION_DDOT":0},{"OBJECT_NAME":"LEMUR-2-UNTITLED-SC","OBJECT_ID":"2025-061A","EPOCH":"2026-07-18T21:18:37.339488","CLASSIFICATION_TYPE":"U","MEAN_MOTION":15.13659594,"ECCENTRICITY":0.00195527,"INCLINATION":97.566,"RA_OF_ASC_NODE":175.026,"ARG_OF_PERICENTER":150.7612,"MEAN_ANOMALY":209.4718,"EPHEMERIS_TYPE":0,"NORAD_CAT_ID":63351,"ELEMENT_SET_NO":999,"REV_AT_EPOCH":7238,"BSTAR":0.00010174143,"MEAN_MOTION_DOT":0.0000177,"MEAN_MOTION_DDOT":0},{"OBJECT_NAME":"LEMUR-2-ESPERANZA","OBJECT_ID":"2025-061B","EPOCH":"2026-07-18T20:42:43.873056","CLASSIFICATION_TYPE":"U","MEAN_MOTION":15.1376553,"ECCENTRICITY":0.00191681,"INCLINATION":97.5666,"RA_OF_ASC_NODE":175.1024,"ARG_OF_PERICENTER":150.1624,"MEAN_ANOMALY":210.0705,"EPHEMERIS_TYPE":0,"NORAD_CAT_ID":63352,"ELEMENT_SET_NO":999,"REV_AT_EPOCH":7238,"BSTAR":0.000098408965,"MEAN_MOTION_DOT":0.00001715,"MEAN_MOTION_DDOT":0},{"OBJECT_NAME":"LEMUR-2-KREMPEL-BRO2","OBJECT_ID":"2025-061C","EPOCH":"2026-07-18T21:08:33.770688","CLASSIFICATION_TYPE":"U","MEAN_MOTION":15.14192896,"ECCENTRICITY":0.00202872,"INCLINATION":97.571,"RA_OF_ASC_NODE":175.6939,"ARG_OF_PERICENTER":143.098,"MEAN_ANOMALY":217.1652,"EPHEMERIS_TYPE":0,"NORAD_CAT_ID":63353,"ELEMENT_SET_NO":999,"REV_AT_EPOCH":7240,"BSTAR":0.00010498386,"MEAN_MOTION_DOT":0.00001858,"MEAN_MOTION_DDOT":0},{"OBJECT_NAME":"LEMUR-2-THERMORAPTOR","OBJECT_ID":"2025-061D","EPOCH":"2026-07-19T04:36:03.125376","CLASSIFICATION_TYPE":"U","MEAN_MOTION":15.14276853,"ECCENTRICITY":0.00200495,"INCLINATION":97.5718,"RA_OF_ASC_NODE":176.0849,"ARG_OF_PERICENTER":141.0309,"MEAN_ANOMALY":219.2372,"EPHEMERIS_TYPE":0,"NORAD_CAT_ID":63354,"ELEMENT_SET_NO":999,"REV_AT_EPOCH":7245,"BSTAR":0.00010339042,"MEAN_MOTION_DOT":0.00001833,"MEAN_MOTION_DDOT":0},{"OBJECT_NAME":"LEMUR-2-NEUROSPICY","OBJECT_ID":"2025-061E","EPOCH":"2026-07-18T21:31:06.542400","CLASSIFICATION_TYPE":"U","MEAN_MOTION":15.14394723,"ECCENTRICITY":0.00178055,"INCLINATION":97.5646,"RA_OF_ASC_NODE":175.3929,"ARG_OF_PERICENTER":144.7929,"MEAN_ANOMALY":215.4483,"EPHEMERIS_TYPE":0,"NORAD_CAT_ID":63355,"ELEMENT_SET_NO":999,"REV_AT_EPOCH":7241,"BSTAR":0.00010372902,"MEAN_MOTION_DOT":0.00001843,"MEAN_MOTION_DDOT":0},{"OBJECT_NAME":"LEMUR-2-TILLINFINITY","OBJECT_ID":"2025-061F","EPOCH":"2026-07-19T04:24:44.284032","CLASSIFICATION_TYPE":"U","MEAN_MOTION":15.14980545,"ECCENTRICITY":0.00193162,"INCLINATION":97.5631,"RA_OF_ASC_NODE":175.9915,"ARG_OF_PERICENTER":132.9139,"MEAN_ANOMALY":227.3718,"EPHEMERIS_TYPE":0,"NORAD_CAT_ID":63356,"ELEMENT_SET_NO":999,"REV_AT_EPOCH":7248,"BSTAR":0.00010747658,"MEAN_MOTION_DOT":0.00001946,"MEAN_MOTION_DDOT":0},{"OBJECT_NAME":"LEMUR-2-KREMPEL-BRO1","OBJECT_ID":"2025-061G","EPOCH":"2026-07-18T21:31:55.780896","CLASSIFICATION_TYPE":"U","MEAN_MOTION":15.14786023,"ECCENTRICITY":0.00199668,"INCLINATION":97.5632,"RA_OF_ASC_NODE":175.6133,"ARG_OF_PERICENTER":135.2144,"MEAN_ANOMALY":225.0704,"EPHEMERIS_TYPE":0,"NORAD_CAT_ID":63357,"ELEMENT_SET_NO":999,"REV_AT_EPOCH":7243,"BSTAR":0.00010378295,"MEAN_MOTION_DOT":0.00001867,"MEAN_MOTION_DDOT":0},{"OBJECT_NAME":"LEMUR-2-LANGER2SPACE","OBJECT_ID":"2025-061H","EPOCH":"2026-07-19T04:39:50.372928","CLASSIFICATION_TYPE":"U","MEAN_MOTION":15.14480543,"ECCENTRICITY":0.00177285,"INCLINATION":97.5637,"RA_OF_ASC_NODE":175.7101,"ARG_OF_PERICENTER":142.2075,"MEAN_ANOMALY":218.0406,"EPHEMERIS_TYPE":0,"NORAD_CAT_ID":63358,"ELEMENT_SET_NO":999,"REV_AT_EPOCH":7246,"BSTAR":0.0001044428,"MEAN_MOTION_DOT":0.00001861,"MEAN_MOTION_DDOT":0},{"OBJECT_NAME":"LEMUR-2-BALTO","OBJECT_ID":"2025-052BH","EPOCH":"2026-07-19T04:49:46.927776","CLASSIFICATION_TYPE":"U","MEAN_MOTION":15.0038299,"ECCENTRICITY":0.00049941,"INCLINATION":97.6919,"RA_OF_ASC_NODE":93.4511,"ARG_OF_PERICENTER":310.3136,"MEAN_ANOMALY":49.765,"EPHEMERIS_TYPE":0,"NORAD_CAT_ID":63395,"ELEMENT_SET_NO":999,"REV_AT_EPOCH":7356,"BSTAR":0.00017160641,"MEAN_MOTION_DOT":0.00002096,"MEAN_MOTION_DDOT":0},{"OBJECT_NAME":"LEMUR-2-KRISH","OBJECT_ID":"2025-135AK","EPOCH":"2026-07-19T05:44:28.056768","CLASSIFICATION_TYPE":"U","MEAN_MOTION":14.9646359,"ECCENTRICITY":0.00011112,"INCLINATION":97.7765,"RA_OF_ASC_NODE":314.9038,"ARG_OF_PERICENTER":103.9024,"MEAN_ANOMALY":256.2321,"EPHEMERIS_TYPE":0,"NORAD_CAT_ID":64561,"ELEMENT_SET_NO":999,"REV_AT_EPOCH":5871,"BSTAR":0.00017691063,"MEAN_MOTION_DOT":0.00001949,"MEAN_MOTION_DDOT":0}]}
